{"result":"*******************************************************************************
 Revised: April 12, 2021             Mercury                            199 / 1

 PHYSICAL DATA (updated 2024-Mar-04):
  Vol. Mean Radius (km) =  2439.4+-0.1    Density (g cm^-3)     = 5.427
  Mass x10^23 (kg)      =     3.302       Volume (x10^10 km^3)  = 6.085  
  Sidereal rot. period  =    58.6463 d    Sid. rot. rate (rad/s)= 0.00000124001
  Mean solar day        =   175.9421 d    Core radius (km)      = ~1600 
  Geometric Albedo      =     0.106       Surface emissivity    = 0.77+-0.06
  GM (km^3/s^2)         = 22031.86855     Equatorial radius, Re = 2440.53 km
  GM 1-sigma (km^3/s^2) =                 Mass ratio (Sun/plnt) = 6023682
  Mom. of Inertia       =     0.33        Equ. gravity  m/s^2   = 3.701     
  Atmos. pressure (bar) = < 5x10^-15      Max. angular diam.    = 11.0\"   
  Mean Temperature (K)  = 440             Visual mag. V(1,0)    = -0.42 
  Obliquity to orbit[1] =  2.11' +/- 0.1' Hill's sphere rad. Rp = 94.4 
  Sidereal orb. per.    =  0.2408467 y    Mean Orbit vel.  km/s = 47.362 
  Sidereal orb. per.    = 87.969257  d    Escape vel. km/s      =  4.435
                                 Perihelion  Aphelion    Mean
  Solar Constant (W/m^2)         14462       6278        9126
  Maximum Planetary IR (W/m^2)   12700       5500        8000
  Minimum Planetary IR (W/m^2)   6           6           6
*******************************************************************************


*******************************************************************************
Ephemeris / API_USER Sat Sep 20 12:30:48 2025 Pasadena, USA      / Horizons    
*******************************************************************************
Target body name: Mercury (199)                   {source: DE441}
Center body name: Earth (399)                     {source: DE441}
Center-site name: GEOCENTRIC
*******************************************************************************
Start time      : A.D. 2025-Jan-01 00:00:00.0000 UT      
Stop  time      : A.D. 2026-Jan-01 00:00:00.0000 UT      
Step-size       : 60 minutes
*******************************************************************************
Target pole/equ : IAU_MERCURY                     {West-longitude positive}
Target radii    : 2440.53, 2440.53, 2438.26 km    {Equator_a, b, pole_c}       
Center geodetic : 0.0, 0.0, -6378.137             {E-lon(deg),Lat(deg),Alt(km)}
Center cylindric: 0.0, 0.0, 0.0                   {E-lon(deg),Dxy(km),Dz(km)}
Center pole/equ : ITRF93                          {East-longitude positive}
Center radii    : 6378.137, 6378.137, 6356.752 km {Equator_a, b, pole_c}       
Target primary  : Sun
Vis. interferer : MOON (R_eq= 1737.400) km        {source: DE441}
Rel. light bend : Sun                             {source: DE441}
Rel. lght bnd GM: 1.3271E+11 km^3/s^2                                          
Atmos refraction: NO (AIRLESS)
RA format       : HMS
Time format     : CAL 
Calendar mode   : Mixed Julian/Gregorian
EOP file        : eop.250919.p251216                                           
EOP coverage    : DATA-BASED 1962-JAN-20 TO 2025-SEP-19. PREDICTS-> 2025-DEC-15
Units conversion: 1 au= 149597870.700 km, c= 299792.458 km/s, 1 day= 86400.0 s 
Table cut-offs 1: Elevation (-90.0deg=NO ),Airmass (>38.000=NO), Daylight (NO )
Table cut-offs 2: Solar elongation (  0.0,180.0=NO ),Local Hour Angle( 0.0=NO )
Table cut-offs 3: RA/DEC angular rate (     0.0=NO )                           
Table format    : Comma Separated Values (spreadsheet)
*******************************************************************************
 Date__(UT)__HR:MN, , ,   APmag,  S-brt,
****************************************
$$SOE
 2025-Jul-29 00:00, , ,   4.725,  5.548,
 2025-Jul-29 01:00, , ,   4.740,  5.548,
 2025-Jul-29 02:00, , ,   4.756,  5.549,
 2025-Jul-29 03:00, , ,   4.771,  5.550,
 2025-Jul-29 04:00, , ,   4.786,  5.551,
 2025-Jul-29 05:00, , ,   4.801,  5.551,
 2025-Jul-29 06:00, , ,   4.816,  5.552,
 2025-Jul-29 07:00, , ,   4.831,  5.552,
 2025-Jul-29 08:00, , ,   4.845,  5.553,
 2025-Jul-29 09:00, , ,   4.860,  5.553,
 2025-Jul-29 10:00, , ,   4.875,  5.553,
 2025-Jul-29 11:00, , ,   4.889,  5.553,
 2025-Jul-29 12:00, , ,   4.904,  5.553,
 2025-Jul-29 13:00, , ,   4.918,  5.553,
 2025-Jul-29 14:00, , ,   4.932,  5.553,
 2025-Jul-29 15:00, , ,   4.946,  5.553,
 2025-Jul-29 16:00, , ,   4.960,  5.552,
 2025-Jul-29 17:00, , ,   4.974,  5.552,
 2025-Jul-29 18:00, , ,   4.988,  5.551,
 2025-Jul-29 19:00, , ,   5.001,  5.551,
 2025-Jul-29 20:00, , ,   5.015,  5.550,
 2025-Jul-29 21:00, , ,   5.028,  5.550,
 2025-Jul-29 22:00, , ,   5.041,  5.549,
 2025-Jul-29 23:00, , ,   5.054,  5.548,
 2025-Jul-30 00:00, , ,   5.067,  5.547,
 2025-Jul-30 01:00, , ,   5.080,  5.546,
 2025-Jul-30 02:00, , ,   5.092,  5.545,
 2025-Jul-30 03:00, , ,   5.104,  5.544,
 2025-Jul-30 04:00, , ,   5.117,  5.543,
 2025-Jul-30 05:00, , ,   5.129,  5.542,
 2025-Jul-30 06:00, , ,   5.140,  5.540,
 2025-Jul-30 07:00, , ,   5.152,  5.539,
 2025-Jul-30 08:00, , ,   5.163,  5.538,
 2025-Jul-30 09:00, , ,   5.175,  5.536,
 2025-Jul-30 10:00, , ,   5.186,  5.535,
 2025-Jul-30 11:00, , ,   5.196,  5.533,
 2025-Jul-30 12:00, , ,   5.207,  5.532,
 2025-Jul-30 13:00, , ,   5.217,  5.530,
 2025-Jul-30 14:00, , ,   5.228,  5.529,
 2025-Jul-30 15:00, , ,   5.237,  5.527,
 2025-Jul-30 16:00, , ,   5.247,  5.525,
 2025-Jul-30 17:00, , ,   5.257,  5.523,
 2025-Jul-30 18:00, , ,   5.266,  5.522,
 2025-Jul-30 19:00, , ,   5.275,  5.520,
 2025-Jul-30 20:00, , ,   5.283,  5.518,
 2025-Jul-30 21:00, , ,   5.292,  5.516,
 2025-Jul-30 22:00, , ,   5.300,  5.515,
 2025-Jul-30 23:00, , ,   5.308,  5.513,
 2025-Jul-31 00:00, , ,   5.315,  5.511,
 2025-Jul-31 01:00, , ,   5.323,  5.509,
 2025-Jul-31 02:00, , ,   5.330,  5.507,
 2025-Jul-31 03:00, , ,   5.336,  5.506,
 2025-Jul-31 04:00, , ,   5.343,  5.504,
 2025-Jul-31 05:00, , ,   5.349,  5.502,
 2025-Jul-31 06:00, , ,   5.355,  5.500,
 2025-Jul-31 07:00, , ,   5.360,  5.499,
 2025-Jul-31 08:00, , ,   5.365,  5.497,
 2025-Jul-31 09:00, , ,   5.370,  5.495,
 2025-Jul-31 10:00, , ,   5.375,  5.494,
 2025-Jul-31 11:00, , ,   5.379,  5.492,
 2025-Jul-31 12:00, , ,   5.383,  5.490,
 2025-Jul-31 13:00, , ,   5.386,  5.489,
 2025-Jul-31 14:00, , ,   5.389,  5.487,
 2025-Jul-31 15:00, , ,   5.392,  5.486,
 2025-Jul-31 16:00, , ,   5.394,  5.485,
 2025-Jul-31 17:00, , ,   5.397,  5.483,
 2025-Jul-31 18:00, , ,   5.398,  5.482,
 2025-Jul-31 19:00, , ,   5.400,  5.481,
 2025-Jul-31 20:00, , ,   5.401,  5.480,
 2025-Jul-31 21:00, , ,   5.402,  5.478,
 2025-Jul-31 22:00, , ,   5.402,  5.477,
 2025-Jul-31 23:00, , ,   5.402,  5.476,
 2025-Aug-01 00:00, , ,   5.401,  5.475,
 2025-Aug-01 01:00, , ,   5.401,  5.475,
 2025-Aug-01 02:00, , ,   5.400,  5.474,
 2025-Aug-01 03:00, , ,   5.398,  5.473,
 2025-Aug-01 04:00, , ,   5.396,  5.472,
 2025-Aug-01 05:00, , ,   5.394,  5.472,
 2025-Aug-01 06:00, , ,   5.392,  5.471,
 2025-Aug-01 07:00, , ,   5.389,  5.470,
 2025-Aug-01 08:00, , ,   5.385,  5.470,
 2025-Aug-01 09:00, , ,   5.382,  5.469,
 2025-Aug-01 10:00, , ,   5.378,  5.469,
 2025-Aug-01 11:00, , ,   5.373,  5.469,
 2025-Aug-01 12:00, , ,   5.369,  5.468,
 2025-Aug-01 13:00, , ,   5.364,  5.468,
 2025-Aug-01 14:00, , ,   5.358,  5.468,
 2025-Aug-01 15:00, , ,   5.353,  5.467,
 2025-Aug-01 16:00, , ,   5.347,  5.467,
 2025-Aug-01 17:00, , ,   5.340,  5.467,
 2025-Aug-01 18:00, , ,   5.333,  5.467,
 2025-Aug-01 19:00, , ,   5.326,  5.467,
 2025-Aug-01 20:00, , ,   5.319,  5.467,
 2025-Aug-01 21:00, , ,   5.311,  5.467,
 2025-Aug-01 22:00, , ,   5.303,  5.467,
 2025-Aug-01 23:00, , ,   5.295,  5.466,
 2025-Aug-02 00:00, , ,   5.286,  5.466,
 2025-Aug-02 01:00, , ,   5.277,  5.466,
 2025-Aug-02 02:00, , ,   5.268,  5.466,
 2025-Aug-02 03:00, , ,   5.258,  5.466,
 2025-Aug-02 04:00, , ,   5.249,  5.466,
 2025-Aug-02 05:00, , ,   5.238,  5.466,
 2025-Aug-02 06:00, , ,   5.228,  5.466,
 2025-Aug-02 07:00, , ,   5.217,  5.465,
 2025-Aug-02 08:00, , ,   5.206,  5.465,
 2025-Aug-02 09:00, , ,   5.195,  5.465,
 2025-Aug-02 10:00, , ,   5.184,  5.465,
 2025-Aug-02 11:00, , ,   5.172,  5.464,
 2025-Aug-02 12:00, , ,   5.160,  5.464,
 2025-Aug-02 13:00, , ,   5.148,  5.463,
 2025-Aug-02 14:00, , ,   5.135,  5.463,
 2025-Aug-02 15:00, , ,   5.122,  5.462,
 2025-Aug-02 16:00, , ,   5.109,  5.462,
 2025-Aug-02 17:00, , ,   5.096,  5.461,
 2025-Aug-02 18:00, , ,   5.083,  5.460,
 2025-Aug-02 19:00, , ,   5.069,  5.460,
 2025-Aug-02 20:00, , ,   5.055,  5.459,
 2025-Aug-02 21:00, , ,   5.041,  5.458,
 2025-Aug-02 22:00, , ,   5.027,  5.457,
 2025-Aug-02 23:00, , ,   5.013,  5.456,
 2025-Aug-03 00:00, , ,   4.998,  5.455,
 2025-Aug-03 01:00, , ,   4.983,  5.453,
 2025-Aug-03 02:00, , ,   4.968,  5.452,
 2025-Aug-03 03:00, , ,   4.953,  5.451,
 2025-Aug-03 04:00, , ,   4.938,  5.449,
 2025-Aug-03 05:00, , ,   4.922,  5.447,
 2025-Aug-03 06:00, , ,   4.907,  5.446,
 2025-Aug-03 07:00, , ,   4.891,  5.444,
 2025-Aug-03 08:00, , ,   4.875,  5.442,
 2025-Aug-03 09:00, , ,   4.859,  5.440,
 2025-Aug-03 10:00, , ,   4.842,  5.438,
 2025-Aug-03 11:00, , ,   4.826,  5.436,
 2025-Aug-03 12:00, , ,   4.810,  5.434,
 2025-Aug-03 13:00, , ,   4.793,  5.431,
 2025-Aug-03 14:00, , ,   4.776,  5.429,
 2025-Aug-03 15:00, , ,   4.759,  5.426,
 2025-Aug-03 16:00, , ,   4.742,  5.424,
 2025-Aug-03 17:00, , ,   4.725,  5.421,
 2025-Aug-03 18:00, , ,   4.708,  5.418,
 2025-Aug-03 19:00, , ,   4.691,  5.415,
 2025-Aug-03 20:00, , ,   4.673,  5.412,
 2025-Aug-03 21:00, , ,   4.656,  5.409,
 2025-Aug-03 22:00, , ,   4.638,  5.406,
 2025-Aug-03 23:00, , ,   4.620,  5.403,
 2025-Aug-04 00:00, , ,   4.602,  5.399,
 2025-Aug-04 01:00, , ,   4.584,  5.396,
 2025-Aug-04 02:00, , ,   4.567,  5.392,
 2025-Aug-04 03:00, , ,   4.548,  5.389,
 2025-Aug-04 04:00, , ,   4.530,  5.385,
 2025-Aug-04 05:00, , ,   4.512,  5.381,
 2025-Aug-04 06:00, , ,   4.494,  5.377,
 2025-Aug-04 07:00, , ,   4.476,  5.373,
